[{"OBJECT_NAME":"STARLINK-5873","OBJECT_ID":"2023-064AU","EPOCH":"2026-03-09T12:31:33.784320","MEAN_MOTION":14.98330535,"ECCENTRICITY":0.00031595,"INCLINATION":69.9993,"RA_OF_ASC_NODE":105.0315,"ARG_OF_PERICENTER":267.7061,"MEAN_ANOMALY":92.3736,"EPHEMERIS_TYPE":0,"CLASSIFICATION_TYPE":"U","NORAD_CAT_ID":56490,"ELEMENT_SET_NO":999,"REV_AT_EPOCH":15620,"BSTAR":-2.2748139e-5,"MEAN_MOTION_DOT":-3.64e-6,"MEAN_MOTION_DDOT":0},{"OBJECT_NAME":"FENGYUN 1C DEB","OBJECT_ID":"1999-025CYT","EPOCH":"2026-03-07T13:55:54.215040","MEAN_MOTION":14.53584795,"ECCENTRICITY":0.0265155,"INCLINATION":98.2146,"RA_OF_ASC_NODE":114.8135,"ARG_OF_PERICENTER":36.9946,"MEAN_ANOMALY":324.9212,"EPHEMERIS_TYPE":0,"CLASSIFICATION_TYPE":"U","NORAD_CAT_ID":32350,"ELEMENT_SET_NO":999,"REV_AT_EPOCH":98759,"BSTAR":0.0011205,"MEAN_MOTION_DOT":7.432e-5,"MEAN_MOTION_DDOT":0}]
